CCSDS_OMM_VERS = 2.0
CREATION_DATE  = 
ORIGINATOR     = 

OBJECT_NAME    = UNKNOWN
OBJECT_ID      = 
CENTER_NAME    = EARTH
REF_FRAME      = TEME
TIME_SYSTEM    = UTC
MEAN_ELEMENT_THEORY = SGP/SGP4

EPOCH          = 2026-02-28T09:35:43.663488
MEAN_MOTION    = 9.33758215
ECCENTRICITY   = .1459682
INCLINATION    = 54.5107
RA_OF_ASC_NODE = 93.4744
ARG_OF_PERICENTER = 121.8746
MEAN_ANOMALY   = 253.2404

EPHEMERIS_TYPE = 0
CLASSIFICATION_TYPE = U
NORAD_CAT_ID   = 81779
ELEMENT_SET_NO = 999
REV_AT_EPOCH   = 48757
BSTAR          = -.22701E+0
MEAN_MOTION_DOT = -.3493E-4
MEAN_MOTION_DDOT = 0

CCSDS_OMM_VERS = 2.0
CREATION_DATE  = 
ORIGINATOR     = 

OBJECT_NAME    = UNKNOWN
OBJECT_ID      = 
CENTER_NAME    = EARTH
REF_FRAME      = TEME
TIME_SYSTEM    = UTC
MEAN_ELEMENT_THEORY = SGP/SGP4

EPOCH          = 2026-02-28T07:21:35.883648
MEAN_MOTION    = 13.11305790
ECCENTRICITY   = .0894944
INCLINATION    = 65.8305
RA_OF_ASC_NODE = 281.5130
ARG_OF_PERICENTER = 248.2033
MEAN_ANOMALY   = 102.1523

EPHEMERIS_TYPE = 0
CLASSIFICATION_TYPE = U
NORAD_CAT_ID   = 81792
ELEMENT_SET_NO = 999
REV_AT_EPOCH   = 9020
BSTAR          = .56404E-3
MEAN_MOTION_DOT = .1546E-4
MEAN_MOTION_DDOT = 0

CCSDS_OMM_VERS = 2.0
CREATION_DATE  = 
ORIGINATOR     = 

OBJECT_NAME    = UNKNOWN
OBJECT_ID      = 
CENTER_NAME    = EARTH
REF_FRAME      = TEME
TIME_SYSTEM    = UTC
MEAN_ELEMENT_THEORY = SGP/SGP4

EPOCH          = 2026-02-28T05:57:52.667136
MEAN_MOTION    = 12.38072391
ECCENTRICITY   = .0270834
INCLINATION    = 103.8070
RA_OF_ASC_NODE = 345.8686
ARG_OF_PERICENTER = 97.3045
MEAN_ANOMALY   = 265.8875

EPHEMERIS_TYPE = 0
CLASSIFICATION_TYPE = U
NORAD_CAT_ID   = 81812
ELEMENT_SET_NO = 999
REV_AT_EPOCH   = 55015
BSTAR          = .48278E-1
MEAN_MOTION_DOT = .7088E-4
MEAN_MOTION_DDOT = 0

CCSDS_OMM_VERS = 2.0
CREATION_DATE  = 
ORIGINATOR     = 

OBJECT_NAME    = UNKNOWN
OBJECT_ID      = 
CENTER_NAME    = EARTH
REF_FRAME      = TEME
TIME_SYSTEM    = UTC
MEAN_ELEMENT_THEORY = SGP/SGP4

EPOCH          = 2026-02-28T02:37:08.907168
MEAN_MOTION    = 13.89737685
ECCENTRICITY   = .0174437
INCLINATION    = 66.2382
RA_OF_ASC_NODE = 103.1954
ARG_OF_PERICENTER = 204.2113
MEAN_ANOMALY   = 155.0693

EPHEMERIS_TYPE = 0
CLASSIFICATION_TYPE = U
NORAD_CAT_ID   = 81816
ELEMENT_SET_NO = 999
REV_AT_EPOCH   = 62009
BSTAR          = .13539E-2
MEAN_MOTION_DOT = .1799E-4
MEAN_MOTION_DDOT = 0

CCSDS_OMM_VERS = 2.0
CREATION_DATE  = 
ORIGINATOR     = 

OBJECT_NAME    = UNKNOWN
OBJECT_ID      = 
CENTER_NAME    = EARTH
REF_FRAME      = TEME
TIME_SYSTEM    = UTC
MEAN_ELEMENT_THEORY = SGP/SGP4

EPOCH          = 2026-02-27T17:03:32.189472
MEAN_MOTION    = 12.47832794
ECCENTRICITY   = .0031348
INCLINATION    = 102.1689
RA_OF_ASC_NODE = 161.9501
ARG_OF_PERICENTER = 325.3875
MEAN_ANOMALY   = 34.5152

EPHEMERIS_TYPE = 0
CLASSIFICATION_TYPE = U
NORAD_CAT_ID   = 81819
ELEMENT_SET_NO = 999
REV_AT_EPOCH   = 55761
BSTAR          = .68623E-2
MEAN_MOTION_DOT = .97E-5
MEAN_MOTION_DDOT = 0

CCSDS_OMM_VERS = 2.0
CREATION_DATE  = 
ORIGINATOR     = 

OBJECT_NAME    = UNKNOWN
OBJECT_ID      = 
CENTER_NAME    = EARTH
REF_FRAME      = TEME
TIME_SYSTEM    = UTC
MEAN_ELEMENT_THEORY = SGP/SGP4

EPOCH          = 2026-02-27T14:08:09.036672
MEAN_MOTION    = 14.36352521
ECCENTRICITY   = .0048262
INCLINATION    = 65.8426
RA_OF_ASC_NODE = 127.3234
ARG_OF_PERICENTER = 295.1694
MEAN_ANOMALY   = 64.4398

EPHEMERIS_TYPE = 0
CLASSIFICATION_TYPE = U
NORAD_CAT_ID   = 81824
ELEMENT_SET_NO = 999
REV_AT_EPOCH   = 63562
BSTAR          = .15943E-2
MEAN_MOTION_DOT = .4646E-4
MEAN_MOTION_DDOT = 0

CCSDS_OMM_VERS = 2.0
CREATION_DATE  = 
ORIGINATOR     = 

OBJECT_NAME    = UNKNOWN
OBJECT_ID      = 
CENTER_NAME    = EARTH
REF_FRAME      = TEME
TIME_SYSTEM    = UTC
MEAN_ELEMENT_THEORY = SGP/SGP4

EPOCH          = 2026-02-27T14:32:43.064736
MEAN_MOTION    = 12.93758862
ECCENTRICITY   = .0025562
INCLINATION    = 90.2474
RA_OF_ASC_NODE = 4.5952
ARG_OF_PERICENTER = 178.1702
MEAN_ANOMALY   = 181.9514

EPHEMERIS_TYPE = 0
CLASSIFICATION_TYPE = U
NORAD_CAT_ID   = 81833
ELEMENT_SET_NO = 999
REV_AT_EPOCH   = 46245
BSTAR          = .12831E-2
MEAN_MOTION_DOT = .361E-5
MEAN_MOTION_DDOT = 0

CCSDS_OMM_VERS = 2.0
CREATION_DATE  = 
ORIGINATOR     = 

OBJECT_NAME    = UNKNOWN
OBJECT_ID      = 
CENTER_NAME    = EARTH
REF_FRAME      = TEME
TIME_SYSTEM    = UTC
MEAN_ELEMENT_THEORY = SGP/SGP4

EPOCH          = 2026-02-28T10:32:10.546080
MEAN_MOTION    = 14.58124003
ECCENTRICITY   = .004491
INCLINATION    = 67.7594
RA_OF_ASC_NODE = 62.9993
ARG_OF_PERICENTER = 294.5438
MEAN_ANOMALY   = 217.1010

EPHEMERIS_TYPE = 0
CLASSIFICATION_TYPE = U
NORAD_CAT_ID   = 81838
ELEMENT_SET_NO = 999
REV_AT_EPOCH   = 64465
BSTAR          = .15345E-2
MEAN_MOTION_DOT = .7097E-4
MEAN_MOTION_DDOT = 0

CCSDS_OMM_VERS = 2.0
CREATION_DATE  = 
ORIGINATOR     = 

OBJECT_NAME    = UNKNOWN
OBJECT_ID      = 
CENTER_NAME    = EARTH
REF_FRAME      = TEME
TIME_SYSTEM    = UTC
MEAN_ELEMENT_THEORY = SGP/SGP4

EPOCH          = 2026-02-27T10:03:37.399104
MEAN_MOTION    = 14.33723784
ECCENTRICITY   = .0060549
INCLINATION    = 82.9089
RA_OF_ASC_NODE = 219.6623
ARG_OF_PERICENTER = 276.6906
MEAN_ANOMALY   = 82.7394

EPHEMERIS_TYPE = 0
CLASSIFICATION_TYPE = U
NORAD_CAT_ID   = 81844
ELEMENT_SET_NO = 999
REV_AT_EPOCH   = 63387
BSTAR          = .27409E-2
MEAN_MOTION_DOT = .7785E-4
MEAN_MOTION_DDOT = 0

CCSDS_OMM_VERS = 2.0
CREATION_DATE  = 
ORIGINATOR     = 

OBJECT_NAME    = UNKNOWN
OBJECT_ID      = 
CENTER_NAME    = EARTH
REF_FRAME      = TEME
TIME_SYSTEM    = UTC
MEAN_ELEMENT_THEORY = SGP/SGP4

EPOCH          = 2026-02-28T11:24:55.736640
MEAN_MOTION    = 14.85664657
ECCENTRICITY   = .0087915
INCLINATION    = 97.6775
RA_OF_ASC_NODE = 248.7176
ARG_OF_PERICENTER = 49.7835
MEAN_ANOMALY   = 341.0876

EPHEMERIS_TYPE = 0
CLASSIFICATION_TYPE = U
NORAD_CAT_ID   = 81845
ELEMENT_SET_NO = 999
REV_AT_EPOCH   = 66106
BSTAR          = .30163E-3
MEAN_MOTION_DOT = .2747E-4
MEAN_MOTION_DDOT = 0

CCSDS_OMM_VERS = 2.0
CREATION_DATE  = 
ORIGINATOR     = 

OBJECT_NAME    = UNKNOWN
OBJECT_ID      = 
CENTER_NAME    = EARTH
REF_FRAME      = TEME
TIME_SYSTEM    = UTC
MEAN_ELEMENT_THEORY = SGP/SGP4

EPOCH          = 2026-02-24T01:01:17.885568
MEAN_MOTION    = 13.32743434
ECCENTRICITY   = .0767897
INCLINATION    = 65.6691
RA_OF_ASC_NODE = 255.4865
ARG_OF_PERICENTER = 341.5164
MEAN_ANOMALY   = 15.9318

EPHEMERIS_TYPE = 0
CLASSIFICATION_TYPE = U
NORAD_CAT_ID   = 81864
ELEMENT_SET_NO = 999
REV_AT_EPOCH   = 56060
BSTAR          = .35029E-3
MEAN_MOTION_DOT = .857E-5
MEAN_MOTION_DDOT = 0

CCSDS_OMM_VERS = 2.0
CREATION_DATE  = 
ORIGINATOR     = 

OBJECT_NAME    = UNKNOWN
OBJECT_ID      = 
CENTER_NAME    = EARTH
REF_FRAME      = TEME
TIME_SYSTEM    = UTC
MEAN_ELEMENT_THEORY = SGP/SGP4

EPOCH          = 2026-02-28T11:47:18.279456
MEAN_MOTION    = 13.88252336
ECCENTRICITY   = .0061543
INCLINATION    = 82.8072
RA_OF_ASC_NODE = 328.6512
ARG_OF_PERICENTER = 141.5962
MEAN_ANOMALY   = 341.4026

EPHEMERIS_TYPE = 0
CLASSIFICATION_TYPE = U
NORAD_CAT_ID   = 81865
ELEMENT_SET_NO = 999
REV_AT_EPOCH   = 61933
BSTAR          = .92424E-3
MEAN_MOTION_DOT = .1137E-4
MEAN_MOTION_DDOT = 0

